{
  "type": "FeatureCollection",
  "features": [
    {
      "type": "Feature",
      "properties": {
        "norad_id": 32175,
        "name": "FENGYUN 1C DEB",
        "group": "fengyun-1c-debris",
        "lat": 80.40663007629794,
        "lon": -129.20056866826945,
        "alt_km": 1004.6800361917876,
        "timestamp": "2025-12-21T20:41:08.245816+00:00",
        "meta_object_name": "FENGYUN 1C DEB",
        "meta_object_id": "1999-025CTV",
        "meta_epoch": "2025-12-21T04:44:24.927072",
        "meta_mean_motion": 13.94865191,
        "meta_eccentricity": 0.01517764,
        "meta_inclination": 98.823,
        "meta_ra_of_asc_node": 343.3939,
        "meta_arg_of_pericenter": 299.9776,
        "meta_mean_anomaly": 58.6394,
        "meta_ephemeris_type": 0,
        "meta_classification_type": "U",
        "meta_norad_cat_id": 32175,
        "meta_element_set_no": 999,
        "meta_rev_at_epoch": 59958,
        "meta_bstar": 0.0018927706,
        "meta_mean_motion_dot": 2.755e-05,
        "meta_mean_motion_ddot": 0,
        "tle_line1": "1 32175U 99025CTV 25355.19751073  .00002755  00000+0  18928-2 0  9994",
        "tle_line2": "2 32175  98.8230 343.3939 0151776 299.9776  58.6394 13.94865191599588"
      },
      "geometry": {
        "type": "Point",
        "coordinates": [
          -129.20056866826945,
          80.40663007629794
        ]
      }
    },
    {
      "type": "Feature",
      "properties": {
        "norad_id": 32177,
        "name": "FENGYUN 1C DEB",
        "group": "fengyun-1c-debris",
        "lat": 78.51069511688416,
        "lon": -45.66359473139898,
        "alt_km": 682.253005735658,
        "timestamp": "2025-12-21T20:41:08.245825+00:00",
        "meta_object_name": "FENGYUN 1C DEB",
        "meta_object_id": "1999-025CTX",
        "meta_epoch": "2025-12-19T07:17:54.949344",
        "meta_mean_motion": 14.56293661,
        "meta_eccentricity": 0.0051637,
        "meta_inclination": 99.0437,
        "meta_ra_of_asc_node": 3.1558,
        "meta_arg_of_pericenter": 25.4129,
        "meta_mean_anomaly": 334.9588,
        "meta_ephemeris_type": 0,
        "meta_classification_type": "U",
        "meta_norad_cat_id": 32177,
        "meta_element_set_no": 999,
        "meta_rev_at_epoch": 71134,
        "meta_bstar": 0.00096839,
        "meta_mean_motion_dot": 4.312e-05,
        "meta_mean_motion_ddot": 0,
        "tle_line1": "1 32177U 99025CTX 25353.30410821  .00004312  00000+0  96839-3 0  9999",
        "tle_line2": "2 32177  99.0437   3.1558 0051637  25.4129 334.9588 14.56293661711340"
      },
      "geometry": {
        "type": "Point",
        "coordinates": [
          -45.66359473139898,
          78.51069511688416
        ]
      }
    },
    {
      "type": "Feature",
      "properties": {
        "norad_id": 32178,
        "name": "FENGYUN 1C DEB",
        "group": "fengyun-1c-debris",
        "lat": -71.78314939674149,
        "lon": 32.384608694717734,
        "alt_km": 756.1348456169271,
        "timestamp": "2025-12-21T20:41:08.245834+00:00",
        "meta_object_name": "FENGYUN 1C DEB",
        "meta_object_id": "1999-025CTY",
        "meta_epoch": "2025-12-19T06:35:46.322016",
        "meta_mean_motion": 14.2302281,
        "meta_eccentricity": 0.0094455,
        "meta_inclination": 100.3031,
        "meta_ra_of_asc_node": 355.8088,
        "meta_arg_of_pericenter": 305.4273,
        "meta_mean_anomaly": 53.8108,
        "meta_ephemeris_type": 0,
        "meta_classification_type": "U",
        "meta_norad_cat_id": 32178,
        "meta_element_set_no": 999,
        "meta_rev_at_epoch": 64096,
        "meta_bstar": 0.00088752,
        "meta_mean_motion_dot": 2.036e-05,
        "meta_mean_motion_ddot": 0,
        "tle_line1": "1 32178U 99025CTY 25353.27484169  .00002036  00000+0  88752-3 0  9998",
        "tle_line2": "2 32178 100.3031 355.8088 0094455 305.4273  53.8108 14.23022810640962"
      },
      "geometry": {
        "type": "Point",
        "coordinates": [
          32.384608694717734,
          -71.78314939674149
        ]
      }
    },
    {
      "type": "Feature",
      "properties": {
        "norad_id": 32179,
        "name": "FENGYUN 1C DEB",
        "group": "fengyun-1c-debris",
        "lat": 24.700157482878947,
        "lon": 40.373490345533824,
        "alt_km": 959.9439338052216,
        "timestamp": "2025-12-21T20:41:08.245842+00:00",
        "meta_object_name": "FENGYUN 1C DEB",
        "meta_object_id": "1999-025CTZ",
        "meta_epoch": "2025-12-18T14:36:04.499424",
        "meta_mean_motion": 14.03685466,
        "meta_eccentricity": 0.01456631,
        "meta_inclination": 98.9086,
        "meta_ra_of_asc_node": 41.3221,
        "meta_arg_of_pericenter": 173.6117,
        "meta_mean_anomaly": 340.7705,
        "meta_ephemeris_type": 0,
        "meta_classification_type": "U",
        "meta_norad_cat_id": 32179,
        "meta_element_set_no": 999,
        "meta_rev_at_epoch": 65810,
        "meta_bstar": 0.00034833521,
        "meta_mean_motion_dot": 5.59e-06,
        "meta_mean_motion_ddot": 0,
        "tle_line1": "1 32179U 99025CTZ 25352.60838541  .00000559  00000+0  34834-3 0  9992",
        "tle_line2": "2 32179  98.9086  41.3221 0145663 173.6117 340.7705 14.03685466658107"
      },
      "geometry": {
        "type": "Point",
        "coordinates": [
          40.373490345533824,
          24.700157482878947
        ]
      }
    },
    {
      "type": "Feature",
      "properties": {
        "norad_id": 32180,
        "name": "FENGYUN 1C DEB",
        "group": "fengyun-1c-debris",
        "lat": -30.79027156916424,
        "lon": 41.917115026961255,
        "alt_km": 1040.3994375863895,
        "timestamp": "2025-12-21T20:41:08.245851+00:00",
        "meta_object_name": "FENGYUN 1C DEB",
        "meta_object_id": "1999-025CUA",
        "meta_epoch": "2025-12-20T21:22:48.640800",
        "meta_mean_motion": 13.82329831,
        "meta_eccentricity": 0.0136626,
        "meta_inclination": 99.5846,
        "meta_ra_of_asc_node": 35.1513,
        "meta_arg_of_pericenter": 188.9828,
        "meta_mean_anomaly": 349.0664,
        "meta_ephemeris_type": 0,
        "meta_classification_type": "U",
        "meta_norad_cat_id": 32180,
        "meta_element_set_no": 999,
        "meta_rev_at_epoch": 94380,
        "meta_bstar": 0.0001015,
        "meta_mean_motion_dot": 7.1e-07,
        "meta_mean_motion_ddot": 0,
        "tle_line1": "1 32180U 99025CUA 25354.89084075  .00000071  00000+0  10150-3 0  9996",
        "tle_line2": "2 32180  99.5846  35.1513 0136626 188.9828 349.0664 13.82329831943809"
      },
      "geometry": {
        "type": "Point",
        "coordinates": [
          41.917115026961255,
          -30.79027156916424
        ]
      }
    },
    {
      "type": "Feature",
      "properties": {
        "norad_id": 32181,
        "name": "FENGYUN 1C DEB",
        "group": "fengyun-1c-debris",
        "lat": 25.01130658105662,
        "lon": -74.66337273494304,
        "alt_km": 710.3384261302654,
        "timestamp": "2025-12-21T20:41:08.245862+00:00",
        "meta_object_name": "FENGYUN 1C DEB",
        "meta_object_id": "1999-025CUB",
        "meta_epoch": "2025-12-20T12:56:29.056416",
        "meta_mean_motion": 14.56087605,
        "meta_eccentricity": 0.0073361,
        "meta_inclination": 99.4725,
        "meta_ra_of_asc_node": 99.3691,
        "meta_arg_of_pericenter": 62.1828,
        "meta_mean_anomaly": 2.0711,
        "meta_ephemeris_type": 0,
        "meta_classification_type": "U",
        "meta_norad_cat_id": 32181,
        "meta_element_set_no": 999,
        "meta_rev_at_epoch": 96834,
        "meta_bstar": 0.0005595,
        "meta_mean_motion_dot": 2.497e-05,
        "meta_mean_motion_ddot": 0,
        "tle_line1": "1 32181U 99025CUB 25354.53922519  .00002497  00000+0  55950-3 0  9993",
        "tle_line2": "2 32181  99.4725  99.3691 0073361  62.1828   2.0711 14.56087605968340"
      },
      "geometry": {
        "type": "Point",
        "coordinates": [
          -74.66337273494304,
          25.01130658105662
        ]
      }
    },
    {
      "type": "Feature",
      "properties": {
        "norad_id": 32183,
        "name": "FENGYUN 1C DEB",
        "group": "fengyun-1c-debris",
        "lat": -75.76197134265593,
        "lon": -170.40193704900707,
        "alt_km": 888.6833221398274,
        "timestamp": "2025-12-21T20:41:08.245872+00:00",
        "meta_object_name": "FENGYUN 1C DEB",
        "meta_object_id": "1999-025CUD",
        "meta_epoch": "2025-12-21T09:14:40.661376",
        "meta_mean_motion": 14.101046,
        "meta_eccentricity": 0.00424898,
        "meta_inclination": 98.7126,
        "meta_ra_of_asc_node": 46.3163,
        "meta_arg_of_pericenter": 36.8584,
        "meta_mean_anomaly": 323.5495,
        "meta_ephemeris_type": 0,
        "meta_classification_type": "U",
        "meta_norad_cat_id": 32183,
        "meta_element_set_no": 999,
        "meta_rev_at_epoch": 72886,
        "meta_bstar": 0.0005355867,
        "meta_mean_motion_dot": 9.12e-06,
        "meta_mean_motion_ddot": 0,
        "tle_line1": "1 32183U 99025CUD 25355.38519284  .00000912  00000+0  53559-3 0  9993",
        "tle_line2": "2 32183  98.7126  46.3163 0042489  36.8584 323.5495 14.10104600728865"
      },
      "geometry": {
        "type": "Point",
        "coordinates": [
          -170.40193704900707,
          -75.76197134265593
        ]
      }
    }
  ]
}